{"type": "FeatureCollection", "features": [ {"type": "Feature", "properties": {"norad_id": 38552, "name": "METEOSAT-10 (MSG-3)", "group": "weather", "lat": -3.4723477272744834, "lon": 6.420133778150821, "alt_km": 35783.63944007116, "timestamp": "2025-12-12T18:57:43.774827+00:00", "meta": {"OBJECT_NAME": "METEOSAT-10 (MSG-3)", "OBJECT_ID": "2012-035B", "EPOCH": "2025-12-12T01:29:48.413760", "MEAN_MOTION": 1.00274807, "ECCENTRICITY": 8.061e-05, "INCLINATION": 4.2276, "RA_OF_ASC_NODE": 61.7269, "ARG_OF_PERICENTER": 251.351, "MEAN_ANOMALY": 150.5582, "EPHEMERIS_TYPE": 0, "CLASSIFICATION_TYPE": "U", "NORAD_CAT_ID": 38552, "ELEMENT_SET_NO": 999, "REV_AT_EPOCH": 4898, "BSTAR": 0, "MEAN_MOTION_DOT": 3e-08, "MEAN_MOTION_DDOT": 0}, "tle": {"line1": "1 38552U 12035B   25346.06236590  .00000003  00000+0  00000+0 0  9996", "line2": "2 38552   4.2276  61.7269 0000806 251.3510 150.5582  1.00274807 48982"}}, "geometry": {"type": "Point", "coordinates": [6.420133778150821, -3.4723477272744834]}}, {"type": "Feature", "properties": {"norad_id": 38771, "name": "METOP-B", "group": "weather", "lat": -14.651440166132508, "lon": 39.036915448032865, "alt_km": 827.1428608365895, "timestamp": "2025-12-12T18:57:43.774838+00:00", "meta": {"OBJECT_NAME": "METOP-B", "OBJECT_ID": "2012-049A", "EPOCH": "2025-12-12T05:30:59.057280", "MEAN_MOTION": 14.21408076, "ECCENTRICITY": 0.00028912, "INCLINATION": 98.6801, "RA_OF_ASC_NODE": 36.1973, "ARG_OF_PERICENTER": 145.2565, "MEAN_ANOMALY": 214.8801, "EPHEMERIS_TYPE": 0, "CLASSIFICATION_TYPE": "U", "NORAD_CAT_ID": 38771, "ELEMENT_SET_NO": 999, "REV_AT_EPOCH": 68670, "BSTAR": 0.00012063887, "MEAN_MOTION_DOT": 2.2e-06, "MEAN_MOTION_DDOT": 0}, "tle": {"line1": "1 38771U 12049A   25346.22985020  .00000220  00000+0  12064-3 0  9999", "line2": "2 38771  98.6801  36.1973 0002891 145.2565 214.8801 14.21408076686701"}}, "geometry": {"type": "Point", "coordinates": [39.036915448032865, -14.651440166132508]}}, {"type": "Feature", "properties": {"norad_id": 39216, "name": "INSAT-3D", "group": "weather", "lat": 1.125210330209379, "lon": 135.66767552845607, "alt_km": 35789.01251636743, "timestamp": "2025-12-12T18:57:43.774850+00:00", "meta": {"OBJECT_NAME": "INSAT-3D", "OBJECT_ID": "2013-038B", "EPOCH": "2025-12-11T19:15:49.511232", "MEAN_MOTION": 1.00270347, "ECCENTRICITY": 0.0001504, "INCLINATION": 1.4427, "RA_OF_ASC_NODE": 85.0027, "ARG_OF_PERICENTER": 164.0419, "MEAN_ANOMALY": 250.209, "EPHEMERIS_TYPE": 0, "CLASSIFICATION_TYPE": "U", "NORAD_CAT_ID": 39216, "ELEMENT_SET_NO": 999, "REV_AT_EPOCH": 4520, "BSTAR": 0, "MEAN_MOTION_DOT": -3.31e-06, "MEAN_MOTION_DDOT": 0}, "tle": {"line1": "1 39216U 13038B   25345.80265638 -.00000331  00000+0  00000+0 0  9999", "line2": "2 39216   1.4427  85.0027 0001504 164.0419 250.2090  1.00270347 45201"}}, "geometry": {"type": "Point", "coordinates": [135.66767552845607, 1.125210330209379]}}, {"type": "Feature", "properties": {"norad_id": 39260, "name": "FENGYUN 3C", "group": "weather", "lat": -50.66926485728154, "lon": 133.98126604801425, "alt_km": 838.4326078042541, "timestamp": "2025-12-12T18:57:43.774862+00:00", "meta": {"OBJECT_NAME": "FENGYUN 3C", "OBJECT_ID": "2013-052A", "EPOCH": "2025-12-12T05:59:56.781600", "MEAN_MOTION": 14.15696054, "ECCENTRICITY": 0.00142654, "INCLINATION": 98.4762, "RA_OF_ASC_NODE": 323.9533, "ARG_OF_PERICENTER": 197.4732, "MEAN_ANOMALY": 162.5954, "EPHEMERIS_TYPE": 0, "CLASSIFICATION_TYPE": "U", "NORAD_CAT_ID": 39260, "ELEMENT_SET_NO": 999, "REV_AT_EPOCH": 63211, "BSTAR": 0.00011597189, "MEAN_MOTION_DOT": 1.86e-06, "MEAN_MOTION_DDOT": 0}, "tle": {"line1": "1 39260U 13052A   25346.24996275  .00000186  00000+0  11597-3 0  9995", "line2": "2 39260  98.4762 323.9533 0014265 197.4732 162.5954 14.15696054632113"}}, "geometry": {"type": "Point", "coordinates": [133.98126604801425, -50.66926485728154]}}, {"type": "Feature", "properties": {"norad_id": 40069, "name": "METEOR-M 2", "group": "weather", "lat": -33.33172586897258, "lon": 138.73474147286686, "alt_km": 823.2250782242936, "timestamp": "2025-12-12T18:57:43.774873+00:00", "meta": {"OBJECT_NAME": "METEOR-M 2", "OBJECT_ID": "2014-037A", "EPOCH": "2025-12-12T06:08:01.679136", "MEAN_MOTION": 14.21386268, "ECCENTRICITY": 0.00049487, "INCLINATION": 98.4905, "RA_OF_ASC_NODE": 323.8586, "ARG_OF_PERICENTER": 211.5485, "MEAN_ANOMALY": 148.5397, "EPHEMERIS_TYPE": 0, "CLASSIFICATION_TYPE": "U", "NORAD_CAT_ID": 40069, "ELEMENT_SET_NO": 999, "REV_AT_EPOCH": 59276, "BSTAR": 0.00012462725, "MEAN_MOTION_DOT": 2.3e-06, "MEAN_MOTION_DDOT": 0}, "tle": {"line1": "1 40069U 14037A   25346.25557499  .00000230  00000+0  12463-3 0  9993", "line2": "2 40069  98.4905 323.8586 0004948 211.5485 148.5397 14.21386268592769"}}, "geometry": {"type": "Point", "coordinates": [138.73474147286686, -33.33172586897258]}}, {"type": "Feature", "properties": {"norad_id": 40267, "name": "HIMAWARI-8", "group": "weather", "lat": -0.018046565447697248, "lon": 146.79915059716282, "alt_km": 35791.35380331436, "timestamp": "2025-12-12T18:57:43.774886+00:00", "meta": {"OBJECT_NAME": "HIMAWARI-8", "OBJECT_ID": "2014-060A", "EPOCH": "2025-12-12T05:35:19.004640", "MEAN_MOTION": 1.00270039, "ECCENTRICITY": 0.00012109, "INCLINATION": 0.0353, "RA_OF_ASC_NODE": 190.2834, "ARG_OF_PERICENTER": 114.4453, "MEAN_ANOMALY": 0.9332, "EPHEMERIS_TYPE": 0, "CLASSIFICATION_TYPE": "U", "NORAD_CAT_ID": 40267, "ELEMENT_SET_NO": 999, "REV_AT_EPOCH": 4088, "BSTAR": 0, "MEAN_MOTION_DOT": -2.66e-06, "MEAN_MOTION_DDOT": 0}, "tle": {"line1": "1 40267U 14060A   25346.23285885 -.00000266  00000+0  00000+0 0  9994", "line2": "2 40267   0.0353 190.2834 0001210 114.4453   0.9332  1.00270039 40884"}}, "geometry": {"type": "Point", "coordinates": [146.79915059716282, -0.018046565447697248]}}, {"type": "Feature", "properties": {"norad_id": 40367, "name": "FENGYUN 2G", "group": "weather", "lat": 2.643398556614626, "lon": 105.57668901434874, "alt_km": 35800.784319857376, "timestamp": "2025-12-12T18:57:43.774898+00:00", "meta": {"OBJECT_NAME": "FENGYUN 2G", "OBJECT_ID": "2014-090A", "EPOCH": "2025-12-11T19:07:12.834912", "MEAN_MOTION": 1.00264403, "ECCENTRICITY": 0.0003128, "INCLINATION": 5.1663, "RA_OF_ASC_NODE": 75.1088, "ARG_OF_PERICENTER": 196.7827, "MEAN_ANOMALY": 195.2176, "EPHEMERIS_TYPE": 0, "CLASSIFICATION_TYPE": "U", "NORAD_CAT_ID": 40367, "ELEMENT_SET_NO": 999, "REV_AT_EPOCH": 4012, "BSTAR": 0, "MEAN_MOTION_DOT": -2.93e-06, "MEAN_MOTION_DDOT": 0}, "tle": {"line1": "1 40367U 14090A   25345.79667633 -.00000293  00000+0  00000+0 0  9993", "line2": "2 40367   5.1663  75.1088 0003128 196.7827 195.2176  1.00264403 40124"}}, "geometry": {"type": "Point", "coordinates": [105.57668901434874, 2.643398556614626]}}, {"type": "Feature", "properties": {"norad_id": 40732, "name": "METEOSAT-11 (MSG-4)", "group": "weather", "lat": -2.271227713109391, "lon": 15.48118271857899, "alt_km": 35791.497763145664, "timestamp": "2025-12-12T18:57:43.774910+00:00", "meta": {"OBJECT_NAME": "METEOSAT-11 (MSG-4)", "OBJECT_ID": "2015-034A", "EPOCH": "2025-12-12T03:15:08.325792", "MEAN_MOTION": 1.00267302, "ECCENTRICITY": 9.319e-05, "INCLINATION": 2.7339, "RA_OF_ASC_NODE": 72.0034, "ARG_OF_PERICENTER": 125.8403, "MEAN_ANOMALY": 301.3279, "EPHEMERIS_TYPE": 0, "CLASSIFICATION_TYPE": "U", "NORAD_CAT_ID": 40732, "ELEMENT_SET_NO": 999, "REV_AT_EPOCH": 534, "BSTAR": 0, "MEAN_MOTION_DOT": 7e-07, "MEAN_MOTION_DDOT": 0}, "tle": {"line1": "1 40732U 15034A   25346.13551303  .00000070  00000+0  00000+0 0  9995", "line2": "2 40732   2.7339  72.0034 0000931 125.8403 301.3279  1.00267302  5342"}}, "geometry": {"type": "Point", "coordinates": [15.48118271857899, -2.271227713109391]}}, {"type": "Feature", "properties": {"norad_id": 41105, "name": "ELEKTRO-L 2", "group": "weather", "lat": -6.150430950137213, "lon": -8.236562212093792, "alt_km": 35783.1228207066, "timestamp": "2025-12-12T18:57:43.774922+00:00", "meta": {"OBJECT_NAME": "ELEKTRO-L 2", "OBJECT_ID": "2015-074A", "EPOCH": "2025-12-12T01:25:33.819744", "MEAN_MOTION": 1.00272344, "ECCENTRICITY": 0.00039179, "INCLINATION": 6.2245, "RA_OF_ASC_NODE": 72.8364, "ARG_OF_PERICENTER": 201.6005, "MEAN_ANOMALY": 173.4667, "EPHEMERIS_TYPE": 0, "CLASSIFICATION_TYPE": "U", "NORAD_CAT_ID": 41105, "ELEMENT_SET_NO": 999, "REV_AT_EPOCH": 3663, "BSTAR": 0, "MEAN_MOTION_DOT": -1.09e-06, "MEAN_MOTION_DDOT": 0}, "tle": {"line1": "1 41105U 15074A   25346.05941921 -.00000109  00000+0  00000+0 0  9998", "line2": "2 41105   6.2245  72.8364 0003917 201.6005 173.4667  1.00272344 36631"}}, "geometry": {"type": "Point", "coordinates": [-8.236562212093792, -6.150430950137213]}}, {"type": "Feature", "properties": {"norad_id": 41752, "name": "INSAT-3DR", "group": "weather", "lat": 0.00936265082522095, "lon": 80.18343785975446, "alt_km": 35846.226407365015, "timestamp": "2025-12-12T18:57:43.774933+00:00", "meta": {"OBJECT_NAME": "INSAT-3DR", "OBJECT_ID": "2016-054A", "EPOCH": "2025-12-12T03:33:36.557856", "MEAN_MOTION": 1.00270808, "ECCENTRICITY": 0.00143869, "INCLINATION": 0.0904, "RA_OF_ASC_NODE": 86.6512, "ARG_OF_PERICENTER": 184.0199, "MEAN_ANOMALY": 297.8282, "EPHEMERIS_TYPE": 0, "CLASSIFICATION_TYPE": "U", "NORAD_CAT_ID": 41752, "ELEMENT_SET_NO": 999, "REV_AT_EPOCH": 3394, "BSTAR": 0, "MEAN_MOTION_DOT": -6.7e-07, "MEAN_MOTION_DDOT": 0}, "tle": {"line1": "1 41752U 16054A   25346.14833979 -.00000067  00000+0  00000+0 0  9991", "line2": "2 41752   0.0904  86.6512 0014386 184.0199 297.8282  1.00270808 33949"}}, "geometry": {"type": "Point", "coordinates": [80.18343785975446, 0.00936265082522095]}}]}